[
    {
        "Altitude(m)": 604969.0892372504,
        "Argument of Periapsis(deg)": 0.0,
        "Eccentricity": 0.0,
        "Inclination(deg)": 60.0,
        "Latitude(deg)": -0.09274491718113384,
        "Longitude(deg)": -90.02247239676355,
        "Mean Anomaly(deg)": 0.0,
        "RAAN(deg)": 10.0,
        "Satellite Name": "Test1 44",
        "Satellite Number": 44,
        "Semi-Major Axis(m)": 6980739.136638005,
        "Time(s)": 0
    },
    {
        "Altitude(m)": 604900.028145405,
        "Argument of Periapsis(deg)": 0.00010418945913296404,
        "Eccentricity": 0.0,
        "Inclination(deg)": 60.0,
        "Latitude(deg)": 0.44768097410661756,
        "Longitude(deg)": -89.75434936071552,
        "Mean Anomaly(deg)": 0.6201061454618307,
        "RAAN(deg)": 9.999579950860259,
        "Satellite Name": "Test1 44",
        "Satellite Number": 44,
        "Semi-Major Axis(m)": 6980739.136638005,
        "Time(s)": 10
    }
]